{
    "links": {
        "self": "http://www.neowsapp.com/rest/v1/neo/3787089?api_key=iIulBulltgU6a56xZRHN4H3l9WmuAYTsLGpBGhQ2"
    },
    "id": "3787089",
    "neo_reference_id": "3787089",
    "name": "(2017 UO1)",
    "designation": "2017 UO1",
    "nasa_jpl_url": "http://ssd.jpl.nasa.gov/sbdb.cgi?sstr=3787089",
    "absolute_magnitude_h": 24.9,
    "estimated_diameter": {
        "kilometers": {
            "estimated_diameter_min": 0.0278326768,
            "estimated_diameter_max": 0.0622357573
        },
        "meters": {
            "estimated_diameter_min": 27.8326768072,
            "estimated_diameter_max": 62.2357573367
        },
        "miles": {
            "estimated_diameter_min": 0.0172944182,
            "estimated_diameter_max": 0.0386714948
        },
        "feet": {
            "estimated_diameter_min": 91.3145593761,
            "estimated_diameter_max": 204.1855621004
        }
    },
    "is_potentially_hazardous_asteroid": false,
    "close_approach_data": [
        {
            "close_approach_date": "2013-10-01",
            "close_approach_date_full": "2013-Oct-01 21:24",
            "epoch_date_close_approach": 1380662640000,
            "relative_velocity": {
                "kilometers_per_second": "14.1350698156",
                "kilometers_per_hour": "50886.2513360981",
                "miles_per_hour": "31618.7376704772"
            },
            "miss_distance": {
                "astronomical": "0.2646326519",
                "lunar": "102.9421015891",
                "kilometers": "39588481.056691453",
                "miles": "24599141.4512819314"
            },
            "orbiting_body": "Earth"
        },
        {
            "close_approach_date": "2017-10-31",
            "close_approach_date_full": "2017-Oct-31 06:09",
            "epoch_date_close_approach": 1509430140000,
            "relative_velocity": {
                "kilometers_per_second": "7.0755795084",
                "kilometers_per_hour": "25472.0862303308",
                "miles_per_hour": "15827.3638023964"
            },
            "miss_distance": {
                "astronomical": "0.0656078645",
                "lunar": "25.5214592905",
                "kilometers": "9814796.784448615",
                "miles": "6098631.924536287"
            },
            "orbiting_body": "Earth"
        },
        {
            "close_approach_date": "2025-12-30",
            "close_approach_date_full": "2025-Dec-30 04:14",
            "epoch_date_close_approach": 1767068040000,
            "relative_velocity": {
                "kilometers_per_second": "20.9346916737",
                "kilometers_per_hour": "75364.8900253592",
                "miles_per_hour": "46828.8118049239"
            },
            "miss_distance": {
                "astronomical": "0.4963447112",
                "lunar": "193.0780926568",
                "kilometers": "74252111.581285144",
                "miles": "46138122.6834332272"
            },
            "orbiting_body": "Earth"
        },
        {
            "close_approach_date": "2166-04-19",
            "close_approach_date_full": "2166-Apr-19 20:00",
            "epoch_date_close_approach": 6194606400000,
            "relative_velocity": {
                "kilometers_per_second": "13.849919736",
                "kilometers_per_hour": "49859.7110496976",
                "miles_per_hour": "30980.885457519"
            },
            "miss_distance": {
                "astronomical": "0.0621393473",
                "lunar": "24.1722060997",
                "kilometers": "9295913.999270251",
                "miles": "5776213.1125854238"
            },
            "orbiting_body": "Mars"
        },
        {
            "close_approach_date": "2173-09-17",
            "close_approach_date_full": "2173-Sep-17 21:32",
            "epoch_date_close_approach": 6428583120000,
            "relative_velocity": {
                "kilometers_per_second": "16.6957489561",
                "kilometers_per_hour": "60104.6962419193",
                "miles_per_hour": "37346.7208398748"
            },
            "miss_distance": {
                "astronomical": "0.1741933687",
                "lunar": "67.7612204243",
                "kilometers": "26058956.925644669",
                "miles": "16192284.9873636722"
            },
            "orbiting_body": "Earth"
        }
    ],
    "orbital_data": {
        "orbit_id": "7",
        "orbit_determination_date": "2017-11-12 06:18:43",
        "first_observation_date": "2017-10-17",
        "last_observation_date": "2017-11-12",
        "data_arc_in_days": 26,
        "observations_used": 41,
        "orbit_uncertainty": "7",
        "minimum_orbit_intersection": ".0610378",
        "jupiter_tisserand_invariant": "3.182",
        "epoch_osculation": "2459000.5",
        "eccentricity": ".5863131036759796",
        "semi_major_axis": "2.536816811945593",
        "inclination": "1.626557569169352",
        "ascending_node_longitude": "72.83273470461295",
        "orbital_period": "1475.815569159134",
        "perihelion_distance": "1.049447873476369",
        "perihelion_argument": "336.1750235474842",
        "aphelion_distance": "4.024185750414817",
        "perihelion_time": "2459540.822857326747",
        "mean_anomaly": "228.1974680966015",
        "mean_motion": ".2439329192096238",
        "equinox": "J2000",
        "orbit_class": {
            "orbit_class_type": "AMO",
            "orbit_class_description": "Near-Earth asteroid orbits similar to that of 1221 Amor",
            "orbit_class_range": "1.017 AU < q (perihelion) < 1.3 AU"
        }
    },
    "is_sentry_object": false
}